{
  "type": "FeatureCollection",
  "features": [
    {
      "type": "Feature",
      "properties": {
        "norad_id": 34790,
        "name": "COSMOS 2251 DEB",
        "group": "cosmos-2251-debris",
        "lat": 59.542283173440154,
        "lon": 9.430650191265002,
        "alt_km": 871.6527568779811,
        "timestamp": "2025-12-26T17:24:55.114748+00:00",
        "meta_object_name": "COSMOS 2251 DEB",
        "meta_object_id": "1993-036AAT",
        "meta_epoch": "2025-12-25T15:51:16.162272",
        "meta_mean_motion": 14.24671167,
        "meta_eccentricity": 0.0100473,
        "meta_inclination": 74.0524,
        "meta_ra_of_asc_node": 220.442,
        "meta_arg_of_pericenter": 279.3563,
        "meta_mean_anomaly": 137.0748,
        "meta_ephemeris_type": 0,
        "meta_classification_type": "U",
        "meta_norad_cat_id": 34790,
        "meta_element_set_no": 999,
        "meta_rev_at_epoch": 86757,
        "meta_bstar": 0.00054898,
        "meta_mean_motion_dot": 1.32e-05,
        "meta_mean_motion_ddot": 0,
        "tle_line1": "1 34790U 93036AAT 25359.66060373  .00001320  00000+0  54898-3 0  9991",
        "tle_line2": "2 34790  74.0524 220.4420 0100473 279.3563 137.0748 14.24671167867573"
      },
      "geometry": {
        "type": "Point",
        "coordinates": [
          9.430650191265002,
          59.542283173440154
        ]
      }
    },
    {
      "type": "Feature",
      "properties": {
        "norad_id": 34792,
        "name": "COSMOS 2251 DEB",
        "group": "cosmos-2251-debris",
        "lat": -21.362441076180836,
        "lon": -30.400623619504962,
        "alt_km": 703.7264006762816,
        "timestamp": "2025-12-26T17:24:55.114758+00:00",
        "meta_object_name": "COSMOS 2251 DEB",
        "meta_object_id": "1993-036AAV",
        "meta_epoch": "2025-12-26T05:12:37.475424",
        "meta_mean_motion": 14.56070955,
        "meta_eccentricity": 0.00123671,
        "meta_inclination": 74.0179,
        "meta_ra_of_asc_node": 144.128,
        "meta_arg_of_pericenter": 239.231,
        "meta_mean_anomaly": 178.4136,
        "meta_ephemeris_type": 0,
        "meta_classification_type": "U",
        "meta_norad_cat_id": 34792,
        "meta_element_set_no": 999,
        "meta_rev_at_epoch": 87846,
        "meta_bstar": 0.0011841057,
        "meta_mean_motion_dot": 5.199e-05,
        "meta_mean_motion_ddot": 0,
        "tle_line1": "1 34792U 93036AAV 25360.21710041  .00005199  00000+0  11841-2 0  9998",
        "tle_line2": "2 34792  74.0179 144.1280 0012367 239.2310 178.4136 14.56070955878469"
      },
      "geometry": {
        "type": "Point",
        "coordinates": [
          -30.400623619504962,
          -21.362441076180836
        ]
      }
    },
    {
      "type": "Feature",
      "properties": {
        "norad_id": 34793,
        "name": "COSMOS 2251 DEB",
        "group": "cosmos-2251-debris",
        "lat": -7.707158969132378,
        "lon": 46.75427416078618,
        "alt_km": 802.5163637272799,
        "timestamp": "2025-12-26T17:24:55.114768+00:00",
        "meta_object_name": "COSMOS 2251 DEB",
        "meta_object_id": "1993-036AAW",
        "meta_epoch": "2025-12-25T19:24:04.961664",
        "meta_mean_motion": 14.38664126,
        "meta_eccentricity": 0.00508769,
        "meta_inclination": 74.0015,
        "meta_ra_of_asc_node": 226.2232,
        "meta_arg_of_pericenter": 17.0479,
        "meta_mean_anomaly": 102.0932,
        "meta_ephemeris_type": 0,
        "meta_classification_type": "U",
        "meta_norad_cat_id": 34793,
        "meta_element_set_no": 999,
        "meta_rev_at_epoch": 87518,
        "meta_bstar": 0.00021915048,
        "meta_mean_motion_dot": 6.55e-06,
        "meta_mean_motion_ddot": 0,
        "tle_line1": "1 34793U 93036AAW 25359.80839076  .00000655  00000+0  21915-3 0  9998",
        "tle_line2": "2 34793  74.0015 226.2232 0050876  17.0479 102.0932 14.38664126875185"
      },
      "geometry": {
        "type": "Point",
        "coordinates": [
          46.75427416078618,
          -7.707158969132378
        ]
      }
    },
    {
      "type": "Feature",
      "properties": {
        "norad_id": 34796,
        "name": "COSMOS 2251 DEB",
        "group": "cosmos-2251-debris",
        "lat": 63.71805791981052,
        "lon": -134.43119726588526,
        "alt_km": 777.2809652422338,
        "timestamp": "2025-12-26T17:24:55.114777+00:00",
        "meta_object_name": "COSMOS 2251 DEB",
        "meta_object_id": "1993-036AAZ",
        "meta_epoch": "2025-12-25T13:03:59.133024",
        "meta_mean_motion": 14.48745914,
        "meta_eccentricity": 0.0100284,
        "meta_inclination": 74.0282,
        "meta_ra_of_asc_node": 192.3362,
        "meta_arg_of_pericenter": 291.6358,
        "meta_mean_anomaly": 98.4563,
        "meta_ephemeris_type": 0,
        "meta_classification_type": "U",
        "meta_norad_cat_id": 34796,
        "meta_element_set_no": 999,
        "meta_rev_at_epoch": 88213,
        "meta_bstar": 0.00055203,
        "meta_mean_motion_dot": 2.189e-05,
        "meta_mean_motion_ddot": 0,
        "tle_line1": "1 34796U 93036AAZ 25359.54443441  .00002189  00000+0  55203-3 0  9990",
        "tle_line2": "2 34796  74.0282 192.3362 0100284 291.6358  98.4563 14.48745914882133"
      },
      "geometry": {
        "type": "Point",
        "coordinates": [
          -134.43119726588526,
          63.71805791981052
        ]
      }
    },
    {
      "type": "Feature",
      "properties": {
        "norad_id": 34797,
        "name": "COSMOS 2251 DEB",
        "group": "cosmos-2251-debris",
        "lat": -71.34553318388264,
        "lon": -47.735917021410394,
        "alt_km": 742.4242639710883,
        "timestamp": "2025-12-26T17:24:55.114787+00:00",
        "meta_object_name": "COSMOS 2251 DEB",
        "meta_object_id": "1993-036ABA",
        "meta_epoch": "2025-12-22T12:22:54.757056",
        "meta_mean_motion": 14.42950692,
        "meta_eccentricity": 0.00710542,
        "meta_inclination": 73.9783,
        "meta_ra_of_asc_node": 81.7691,
        "meta_arg_of_pericenter": 193.6898,
        "meta_mean_anomaly": 166.2334,
        "meta_ephemeris_type": 0,
        "meta_classification_type": "U",
        "meta_norad_cat_id": 34797,
        "meta_element_set_no": 999,
        "meta_rev_at_epoch": 87556,
        "meta_bstar": 0.0021692417,
        "meta_mean_motion_dot": 7.461e-05,
        "meta_mean_motion_ddot": 0,
        "tle_line1": "1 34797U 93036ABA 25356.51591154  .00007461  00000+0  21692-2 0  9992",
        "tle_line2": "2 34797  73.9783  81.7691 0071054 193.6898 166.2334 14.42950692875560"
      },
      "geometry": {
        "type": "Point",
        "coordinates": [
          -47.735917021410394,
          -71.34553318388264
        ]
      }
    },
    {
      "type": "Feature",
      "properties": {
        "norad_id": 34814,
        "name": "COSMOS 2251 DEB",
        "group": "cosmos-2251-debris",
        "lat": -54.63915474887571,
        "lon": -84.5199248391804,
        "alt_km": 792.3730302378526,
        "timestamp": "2025-12-26T17:24:55.114797+00:00",
        "meta_object_name": "COSMOS 2251 DEB",
        "meta_object_id": "1993-036ABD",
        "meta_epoch": "2025-12-23T04:46:16.254336",
        "meta_mean_motion": 14.3693492,
        "meta_eccentricity": 0.00554769,
        "meta_inclination": 73.8962,
        "meta_ra_of_asc_node": 306.0405,
        "meta_arg_of_pericenter": 193.3771,
        "meta_mean_anomaly": 230.9861,
        "meta_ephemeris_type": 0,
        "meta_classification_type": "U",
        "meta_norad_cat_id": 34814,
        "meta_element_set_no": 999,
        "meta_rev_at_epoch": 87483,
        "meta_bstar": 0.00068608274,
        "meta_mean_motion_dot": 2.041e-05,
        "meta_mean_motion_ddot": 0,
        "tle_line1": "1 34814U 93036ABD 25357.19879924  .00002041  00000+0  68608-3 0  9999",
        "tle_line2": "2 34814  73.8962 306.0405 0055476 193.3771 230.9861 14.36934920874833"
      },
      "geometry": {
        "type": "Point",
        "coordinates": [
          -84.5199248391804,
          -54.63915474887571
        ]
      }
    },
    {
      "type": "Feature",
      "properties": {
        "norad_id": 34815,
        "name": "COSMOS 2251 DEB",
        "group": "cosmos-2251-debris",
        "lat": 22.004444328585826,
        "lon": -139.02409032693748,
        "alt_km": 642.3112280699879,
        "timestamp": "2025-12-26T17:24:55.114807+00:00",
        "meta_object_name": "COSMOS 2251 DEB",
        "meta_object_id": "1993-036ABE",
        "meta_epoch": "2025-12-26T01:04:19.230528",
        "meta_mean_motion": 14.78457194,
        "meta_eccentricity": 0.00586768,
        "meta_inclination": 74.044,
        "meta_ra_of_asc_node": 215.6734,
        "meta_arg_of_pericenter": 281.9986,
        "meta_mean_anomaly": 77.4616,
        "meta_ephemeris_type": 0,
        "meta_classification_type": "U",
        "meta_norad_cat_id": 34815,
        "meta_element_set_no": 999,
        "meta_rev_at_epoch": 88824,
        "meta_bstar": 0.00072445871,
        "meta_mean_motion_dot": 5.407e-05,
        "meta_mean_motion_ddot": 0,
        "tle_line1": "1 34815U 93036ABE 25360.04466702  .00005407  00000+0  72446-3 0  9998",
        "tle_line2": "2 34815  74.0440 215.6734 0058676 281.9986  77.4616 14.78457194888246"
      },
      "geometry": {
        "type": "Point",
        "coordinates": [
          -139.02409032693748,
          22.004444328585826
        ]
      }
    }
  ]
}